ORBCOMM FM06            
1 25118U 97084G   26193.32638547  .00000536  00000+0  18331-3 0  9996
2 25118  45.0142 291.6869 0001341 223.9962 167.8068 14.47623379498034
ORBCOMM FM04            
1 25159U 98007C   26193.89474678  .00000360  00000+0  16868-3 0  9990
2 25159 107.9633 222.3312 0041928 280.7833  78.8590 14.35782181480282
ORBCOMM FM19            
1 25415U 98046C   26194.19180656  .00000467  00000+0  19378-3 0  9999
2 25415  44.9931 119.9461 0003294  49.2638  93.5898 14.39539409460526
ORBCOMM FM20            
1 25416U 98046D   26193.23044279  .00000323  00000+0  15202-3 0  9997
2 25416  44.9931 132.7157 0001680 341.6287  18.4501 14.38097395460392
ORBCOMM FM27            
1 25481U 98053G   26192.48362371  .00000334  00000+0  15260-3 0  9995
2 25481  45.0035 219.9500 0002441 278.1343  81.9229 14.39181226453734
ORBCOMM FM32            
1 25982U 99065C   26193.03773816  .00000318  00000+0  15326-3 0  9992
2 25982  45.0156  55.6091 0005402 176.7380 183.3505 14.37165596390664
ORBCOMM FM109           
1 40086U 14040A   26193.78089537  .00000134  00000+0  64615-4 0  9998
2 40086  47.0044 330.4807 0001595 314.4236  45.6519 14.58871261638085
ORBCOMM FM110           
1 41182U 15081D   26193.51184114  .00000172  00000+0  72512-4 0  9997
2 41182  47.0008 241.6985 0003492 211.7770 148.2905 14.58916062561323
ORBCOMM FM118           
1 41183U 15081E   26194.16260671  .00000078  00000+0  52835-4 0  9994
2 41183  47.0027 238.9584 0002790 176.7782 183.3122 14.58902986561525
ORBCOMM FM112           
1 41184U 15081F   26193.89272206  .00000345  00000+0  10903-3 0  9997
2 41184  46.9979 148.6881 0003813 319.2717  40.7883 14.58936776562701
ORBCOMM FM113           
1 41185U 15081G   26193.93871822  .00000135  00000+0  64883-4 0  9996
2 41185  46.9997 148.8602 0002344 312.8673  47.2016 14.58880771562694
ORBCOMM FM108           
1 41187U 15081J   26194.03772683  .00000292  00000+0  97932-4 0  9990
2 41187  47.0053  59.9728 0002771 314.2400  45.8258 14.58908772563853
ORBCOMM FM117           
1 41188U 15081K   26194.00344233  .00000268  00000+0  93001-4 0  9990
2 41188  47.0016  58.7625 0003199 320.9684  39.0971 14.58895854563896
ORBCOMM FM116           
1 41189U 15081L   26193.91511187  .00000070  00000+0  50884-4 0  9997
2 41189  47.0014 148.9688 0001529 225.1893 134.8868 14.58904279562697
